{
"type": "FeatureCollection",
"name": "bcn_1km_epsg4326",
"crs": { "type": "name", "properties": { "name": "urn:ogc:def:crs:OGC:1.3:CRS84" } },
"features": [
{ "type": "Feature", "properties": { "CODI_UA": "080193", "TIPUS_UA": "AOI_MODEL", "NOM": "Barcelona + 1km", "CONJ_DESCR": "Terme Municipal", "buffer_m": 1000 }, "geometry": { "type": "Polygon", "coordinates": [ [ [ 2.040750574702567, 41.42199220050194 ], [ 2.040690534312161, 41.422148764066861 ], [ 2.040479873475114, 41.422993456812847 ], [ 2.040377130645755, 41.423849416727784 ], [ 2.040383245531922, 41.424708850441242 ], [ 2.040498166749438, 41.425563932650419 ], [ 2.040720852133961, 41.426406877370191 ], [ 2.041049278076795, 41.427230008836069 ], [ 2.041145590411633, 41.427435279807113 ], [ 2.041583056164809, 41.428241264482828 ], [ 2.042121886140305, 41.429011691802565 ], [ 2.042757048095114, 41.429739361557964 ], [ 2.043482608912699, 41.430417472903564 ], [ 2.043938915705728, 41.430804080727874 ], [ 2.044661439287873, 41.431365194853932 ], [ 2.045445875808969, 41.431877063986697 ], [ 2.045775793842569, 41.432057156544936 ], [ 2.045759902943958, 41.432116166978375 ], [ 2.045640658012731, 41.433043040739484 ], [ 2.045643367635145, 41.433337968658179 ], [ 2.045601177191484, 41.433520010737887 ], [ 2.045515426693883, 41.43444593971077 ], [ 2.045556755768956, 41.435373593340437 ], [ 2.045565234899473, 41.435448425093568 ], [ 2.045705525086585, 41.436254596549304 ], [ 2.045720837841671, 41.436306002549173 ], [ 2.045721148395431, 41.436334589441309 ], [ 2.04585249530679, 41.437237377727165 ], [ 2.04610399296043, 41.43812562230444 ], [ 2.046473088987458, 41.438990291501199 ], [ 2.046956034878982, 41.439822593006127 ], [ 2.047547923929002, 41.440614063304253 ], [ 2.04824274097981, 41.441356653781789 ], [ 2.049033423469897, 41.442042812622162 ], [ 2.049911933168164, 41.442665561657982 ], [ 2.050869337867995, 41.44321856739495 ], [ 2.051895902211953, 41.443696205482162 ], [ 2.052981186723278, 41.444093617970537 ], [ 2.054114154035287, 41.444406762773895 ], [ 2.055283281234999, 41.444632454827371 ], [ 2.056476677173726, 41.444768398521632 ], [ 2.057682203545584, 41.444813211081751 ], [ 2.058887598495671, 41.444766436650696 ], [ 2.060080601493177, 41.444628550933992 ], [ 2.060517320769743, 41.444560960085987 ], [ 2.061519238870743, 41.444371644889749 ], [ 2.062495726036659, 41.444118027418227 ], [ 2.062521987975936, 41.444109233614263 ], [ 2.063104479700385, 41.443965410893441 ], [ 2.063504465230942, 41.443832348068192 ], [ 2.063628739257859, 41.443801898772108 ], [ 2.064571943163944, 41.443489283734472 ], [ 2.065086744775719, 41.44377556648827 ], [ 2.065131940274705, 41.443798445969037 ], [ 2.065976423892281, 41.44418873915042 ], [ 2.066860931316835, 41.444525123640481 ], [ 2.067779397715272, 41.444805292702384 ], [ 2.067888124234027, 41.444834576558243 ], [ 2.068225356380315, 41.444934554971695 ], [ 2.069412345952821, 41.445233521258302 ], [ 2.070634346526281, 41.445437575192621 ], [ 2.071049365134583, 41.445489915911665 ], [ 2.072176984612375, 41.445591024749994 ], [ 2.073312265190328, 41.445611268764928 ], [ 2.07444498551133, 41.445550465648964 ], [ 2.075564947286748, 41.445409162789339 ], [ 2.076662067228146, 41.445188632335224 ], [ 2.077726467937657, 41.444890859731892 ], [ 2.078748566933829, 41.444518525825544 ], [ 2.079719163006975, 41.444074982700876 ], [ 2.080031530582839, 41.443916501950099 ], [ 2.080963835651623, 41.443392124392325 ], [ 2.081824030906281, 41.442802084653941 ], [ 2.082603982095498, 41.442151963668998 ], [ 2.082714758578104, 41.442039313149131 ], [ 2.082725118963527, 41.442033022590259 ], [ 2.083543406730547, 41.441430395149141 ], [ 2.084281415734183, 41.440771688199902 ], [ 2.084532558155709, 41.440498257160108 ], [ 2.084534555233335, 41.440498023602771 ], [ 2.085524992289494, 41.440316119793238 ], [ 2.086491258497281, 41.440071445013764 ], [ 2.086614279677931, 41.440035836489571 ], [ 2.087278206732506, 41.43981050801932 ], [ 2.087411188648649, 41.439895648439418 ], [ 2.088370237812477, 41.440397203224649 ], [ 2.089389694291779, 41.440826028832198 ], [ 2.089974436918005, 41.441018373186694 ], [ 2.090098641795208, 41.441078615254732 ], [ 2.091169453292253, 41.441489995441295 ], [ 2.092289719359538, 41.441818457738101 ], [ 2.093448133787885, 41.442060686931242 ], [ 2.094633004868898, 41.442214238121473 ], [ 2.095832373526168, 41.442277561431752 ], [ 2.097034134161833, 41.442250017671249 ], [ 2.098226156991601, 41.442131884796801 ], [ 2.099396410625956, 41.44192435510606 ], [ 2.100533083652655, 41.441629523190613 ], [ 2.101624703985965, 41.441250364771605 ], [ 2.10266025477118, 41.440790706632448 ], [ 2.103629285668563, 41.440255187953916 ], [ 2.103794443347937, 41.440153925394263 ], [ 2.104301712836491, 41.439793149121506 ], [ 2.10476182202475, 41.439608858611479 ], [ 2.105326310922232, 41.439312040893505 ], [ 2.105426669056397, 41.439268430327964 ], [ 2.106380629231833, 41.438754003532033 ], [ 2.107263037918127, 41.438171739858142 ], [ 2.10782597122839, 41.437719569250532 ], [ 2.108237149543263, 41.437739482861716 ], [ 2.109541603579087, 41.437749041882668 ], [ 2.110839689763403, 41.437651701375181 ], [ 2.11103476236415, 41.437628936694281 ], [ 2.111350115635316, 41.437579220662911 ], [ 2.111688165292081, 41.437606712081319 ], [ 2.112966067295458, 41.43760750462954 ], [ 2.113006056981907, 41.437605920515843 ], [ 2.114019265662678, 41.43753316885612 ], [ 2.114683162962023, 41.437442153944531 ], [ 2.115168286565817, 41.437402894400535 ], [ 2.11628463482765, 41.437230513512255 ], [ 2.116659683200159, 41.437143936552182 ], [ 2.116697828135631, 41.437652443220095 ], [ 2.116721439409911, 41.437808626672556 ], [ 2.116941913974385, 41.438785148602669 ], [ 2.116979847371116, 41.438910845524887 ], [ 2.117326086851835, 41.439829546585912 ], [ 2.117388708171868, 41.439946701483464 ], [ 2.117381427893156, 41.440045020670986 ], [ 2.117438675323871, 41.440965957427217 ], [ 2.117545514167899, 41.441500977655217 ], [ 2.117541125643559, 41.442298379537512 ], [ 2.117641663379767, 41.443139694862658 ], [ 2.117846507433591, 41.443970222944962 ], [ 2.118153859928388, 41.44478265837261 ], [ 2.118295196232636, 41.445055917126687 ], [ 2.118386728391384, 41.445376307579053 ], [ 2.118770686567716, 41.446262184715806 ], [ 2.119274241739243, 41.447113472019474 ], [ 2.11989200831946, 41.447921057103699 ], [ 2.120617377468187, 41.448676295048593 ], [ 2.120696090729301, 41.448749904692647 ], [ 2.121272504400597, 41.449361087688452 ], [ 2.121958614241775, 41.449967101783045 ], [ 2.122713178155847, 41.450525163794929 ], [ 2.123530301657968, 41.451030913006356 ], [ 2.123533779630409, 41.451032703133045 ], [ 2.123640330915612, 41.451142065088931 ], [ 2.123852533014489, 41.451319853116232 ], [ 2.123897239697566, 41.451396565192759 ], [ 2.123995785001995, 41.451546838500747 ], [ 2.124579845457468, 41.452335252393063 ], [ 2.125265871799932, 41.453075724445632 ], [ 2.126046976502542, 41.453760816865064 ], [ 2.126915316267599, 41.45438364789679 ], [ 2.127862170758551, 41.454937961006998 ], [ 2.127903782174509, 41.454959894235635 ], [ 2.128773772520434, 41.4553775941867 ], [ 2.129688358683383, 41.455737366826554 ], [ 2.130640742497556, 41.456036537658669 ], [ 2.131623844493684, 41.456272882650964 ], [ 2.131673994589938, 41.456283169363523 ], [ 2.13267053305276, 41.456453562844452 ], [ 2.133682760803425, 41.45655939289032 ], [ 2.134354202454865, 41.456586036855079 ], [ 2.135326483918775, 41.456774744039187 ], [ 2.136542287910819, 41.456912728248483 ], [ 2.136636783848355, 41.456919742710745 ], [ 2.137618864987806, 41.456962089965288 ], [ 2.138602252456888, 41.456943635466452 ], [ 2.139580305162455, 41.45686450381568 ], [ 2.139775759751938, 41.456842546422941 ], [ 2.141102236499176, 41.456635215161732 ], [ 2.141240295352671, 41.456607422265058 ], [ 2.141461235840012, 41.456554556439755 ], [ 2.141691982674531, 41.456592889575354 ], [ 2.142277172531867, 41.456719425666826 ], [ 2.143385878577384, 41.456876046977186 ], [ 2.144509261170287, 41.456953462057641 ], [ 2.145637343206908, 41.456950983322365 ], [ 2.145697239316307, 41.456948725956323 ], [ 2.146861079465175, 41.45686182882708 ], [ 2.147500890171928, 41.456765932208128 ], [ 2.148307902301564, 41.457160135909817 ], [ 2.148330519826408, 41.457170211506941 ], [ 2.149498758659038, 41.457627315471491 ], [ 2.149818227449434, 41.457735964388 ], [ 2.149900421230482, 41.457760768064446 ], [ 2.150104092656836, 41.457843740226551 ], [ 2.150400745589045, 41.457957623385127 ], [ 2.151609081651168, 41.458359902164027 ], [ 2.152763663951483, 41.458634498671813 ], [ 2.153196707689872, 41.45954432405842 ], [ 2.15344945833466, 41.459933760064494 ], [ 2.153447839920067, 41.459934315964638 ], [ 2.153753128929456, 41.460437273447212 ], [ 2.154077829285169, 41.460918536024792 ], [ 2.154074662451741, 41.460919761741586 ], [ 2.154247285313046, 41.461172138285633 ], [ 2.154273558060248, 41.46120658131349 ], [ 2.154342235643128, 41.461319655668724 ], [ 2.154458166718623, 41.461496435788 ], [ 2.154527072554014, 41.461599829393492 ], [ 2.154648117117266, 41.461778582588373 ], [ 2.154731374369288, 41.461886283452685 ], [ 2.154937076706599, 41.462256452423603 ], [ 2.154980001366956, 41.462322638816765 ], [ 2.155638842103727, 41.463208131279956 ], [ 2.156010762854619, 41.463597553181934 ], [ 2.156244701955274, 41.464093503851828 ], [ 2.156726641372996, 41.46487108618242 ], [ 2.157304761720725, 41.465610647018863 ], [ 2.157973819825895, 41.466305474936135 ], [ 2.158727746693446, 41.466949264243553 ], [ 2.15955970251968, 41.467536172250867 ], [ 2.160462138728379, 41.468060872336089 ], [ 2.16142686646713, 41.46851860233172 ], [ 2.162445130942094, 41.468905207788197 ], [ 2.163507690915454, 41.469217179720061 ], [ 2.164604902641901, 41.469451686490281 ], [ 2.165556741200366, 41.469583117474457 ], [ 2.165770082108089, 41.469765424485907 ], [ 2.166645731256792, 41.470377921487788 ], [ 2.166847524924914, 41.470493118666482 ], [ 2.167225844306157, 41.470756411968473 ], [ 2.167229693176034, 41.470758604397574 ], [ 2.167508355992978, 41.471398728664944 ], [ 2.167974340090582, 41.472197798062844 ], [ 2.168540952267932, 41.472959202988797 ], [ 2.16920287739419, 41.473675796416096 ], [ 2.169953905068376, 41.474340851715034 ], [ 2.170786987841701, 41.474948125839035 ], [ 2.17169430732688, 41.475491917976015 ], [ 2.172667347575096, 41.475967123112085 ], [ 2.173696975031908, 41.476369280002459 ], [ 2.174773524320365, 41.47669461309728 ], [ 2.175886889043822, 41.476940068026579 ], [ 2.177026616752683, 41.47710334030954 ], [ 2.178182007179341, 41.477182897016661 ], [ 2.179342212814099, 41.477177991180568 ], [ 2.180496340872339, 41.477088668818972 ], [ 2.180886828191618, 41.477029301128873 ], [ 2.181549305680762, 41.477145924048941 ], [ 2.181711719507608, 41.477167400261372 ], [ 2.182712991110766, 41.477267272548708 ], [ 2.183721893433459, 41.477303332192236 ], [ 2.184001544938336, 41.477304447274534 ], [ 2.185179191199256, 41.477265507882834 ], [ 2.186346039741309, 41.477139680878352 ], [ 2.186702930786731, 41.477087600446886 ], [ 2.187812363418445, 41.47688398508118 ], [ 2.188795576311688, 41.476626770029362 ], [ 2.189887455613783, 41.476469257643302 ], [ 2.19100813132384, 41.476220376959922 ], [ 2.192091212630455, 41.475890535668022 ], [ 2.193126385671348, 41.475482874891028 ], [ 2.194103793329658, 41.475001276786024 ], [ 2.195014129171209, 41.474450327534548 ], [ 2.195848726109874, 41.473835273624886 ], [ 2.196599638954274, 41.473161971844277 ], [ 2.19725972004849, 41.47243683345966 ], [ 2.197822687286525, 41.471666763120446 ], [ 2.198283183854133, 41.470859093067887 ], [ 2.198636829131646, 41.4700215132791 ], [ 2.198880260276714, 41.469161998213401 ], [ 2.199011164095659, 41.468288730859769 ], [ 2.199125051450024, 41.466940878390076 ], [ 2.199386667708993, 41.46454137506089 ], [ 2.199503180936006, 41.463498373986305 ], [ 2.199830919426397, 41.463188022783626 ], [ 2.199866548612512, 41.463157120667276 ], [ 2.199932133400305, 41.463104019287186 ], [ 2.200081500389357, 41.462991709359599 ], [ 2.202750439628457, 41.461066851504953 ], [ 2.203462082326977, 41.460563370821369 ], [ 2.205160405806385, 41.459371494148577 ], [ 2.205200857863201, 41.459342972144697 ], [ 2.205920013841875, 41.458833543746138 ], [ 2.206164414855595, 41.458655417744382 ], [ 2.20655784827051, 41.458360401236469 ], [ 2.207030784875545, 41.457984783923635 ], [ 2.207401184208956, 41.457673140141608 ], [ 2.20746210058179, 41.457621489290133 ], [ 2.208166927185448, 41.457019225574079 ], [ 2.208253878858259, 41.456944091901242 ], [ 2.208645519357452, 41.456601874948042 ], [ 2.209063318220721, 41.456215701305972 ], [ 2.210191762923239, 41.455111660357311 ], [ 2.210232858389629, 41.455071216684374 ], [ 2.211360998656697, 41.453954416381045 ], [ 2.211445411414829, 41.453869823566613 ], [ 2.212826407466884, 41.4524687812103 ], [ 2.212956562388738, 41.452334150124379 ], [ 2.215351145599735, 41.449808341309499 ], [ 2.215394009203987, 41.449762829019775 ], [ 2.215669769006034, 41.449468096761734 ], [ 2.21582798669179, 41.449294726838644 ], [ 2.216079661120669, 41.44901192815599 ], [ 2.216194457534608, 41.448880465320556 ], [ 2.216359456995511, 41.448687865776506 ], [ 2.216636478910267, 41.448348231563365 ], [ 2.217172973204903, 41.447656598378444 ], [ 2.217404301082496, 41.447344293867516 ], [ 2.217513062785246, 41.447190350911022 ], [ 2.217696564534287, 41.446919700081082 ], [ 2.217947204324721, 41.446534089199154 ], [ 2.218036176913121, 41.446394162798036 ], [ 2.218214466748347, 41.446107450190155 ], [ 2.218354294839658, 41.445873998063604 ], [ 2.218549514105131, 41.445535291026943 ], [ 2.218704699238846, 41.44525302167964 ], [ 2.21888657038655, 41.444905646490461 ], [ 2.218955324350688, 41.444771181075296 ], [ 2.219035993718887, 41.444609566083848 ], [ 2.219112510930652, 41.444451816441152 ], [ 2.219233765098258, 41.44419440887431 ], [ 2.219344723595241, 41.443947573459646 ], [ 2.219486958969766, 41.443615402127783 ], [ 2.219578940083867, 41.443390573788783 ], [ 2.219710594989767, 41.443053160095374 ], [ 2.219791646859482, 41.442835351858278 ], [ 2.219856474796926, 41.442652319889554 ], [ 2.219909445414005, 41.442497237646784 ], [ 2.220019967687948, 41.44216130067386 ], [ 2.220081362543523, 41.441965321325604 ], [ 2.220148624372211, 41.441739330262337 ], [ 2.220197337894295, 41.441567847268651 ], [ 2.220346264134113, 41.441017427742459 ], [ 2.221072189215371, 41.438424130389024 ], [ 2.221119354226062, 41.438284381249453 ], [ 2.221143944002736, 41.438215302947221 ], [ 2.221240533322624, 41.437972107606264 ], [ 2.221259705003208, 41.437926927325371 ], [ 2.221287170215335, 41.4378656497789 ], [ 2.221387907751713, 41.437653388208119 ], [ 2.22141214939597, 41.437606059120618 ], [ 2.22180190509084, 41.436904350358425 ], [ 2.222196651842549, 41.436084082876896 ], [ 2.22248408698782, 41.435238923463587 ], [ 2.222661517925213, 41.434376801652171 ], [ 2.222727284386809, 41.433505805811386 ], [ 2.222680773853942, 41.432634107245285 ], [ 2.222522427136566, 41.431769883527274 ], [ 2.222253734070156, 41.430921241787452 ], [ 2.221877219376797, 41.430096142672667 ], [ 2.221396418829173, 41.429302325692255 ], [ 2.220819522474067, 41.42855201837839 ], [ 2.220936216734747, 41.428431869916622 ], [ 2.221519252621987, 41.427692710126173 ], [ 2.221700293598104, 41.427436020749511 ], [ 2.222099072937946, 41.42680387105834 ], [ 2.222459503487606, 41.426559141386363 ], [ 2.223474131010813, 41.425799594091409 ], [ 2.223585264404317, 41.425715294116735 ], [ 2.224058343368517, 41.425351674169121 ], [ 2.22476471946116, 41.424819835070707 ], [ 2.22479274473201, 41.42480733020151 ], [ 2.22573861203949, 41.424284733219856 ], [ 2.226611920467235, 41.423694921063081 ], [ 2.227404273685722, 41.423043565759741 ], [ 2.228108054561162, 41.422336931010427 ], [ 2.22871649837098, 41.4215818119037 ], [ 2.230077787773093, 41.419688779968631 ], [ 2.230586351651321, 41.419242422554014 ], [ 2.232896457016673, 41.418303842255355 ], [ 2.233875487683215, 41.417859320537325 ], [ 2.234793672825528, 41.417346483116376 ], [ 2.235642628031535, 41.416770013770446 ], [ 2.236414601769775, 41.416135177310196 ], [ 2.23710254617943, 41.415447771452648 ], [ 2.23749359053949, 41.414967701071127 ], [ 2.237751584664864, 41.414711444261599 ], [ 2.238345979548343, 41.413988255307707 ], [ 2.2383992193926, 41.413916070442319 ], [ 2.238902673956024, 41.413149898200487 ], [ 2.239307372591425, 41.412351247407329 ], [ 2.239380695701647, 41.412182967814601 ], [ 2.239738877561857, 41.411162481738486 ], [ 2.23975383631203, 41.411106842215467 ], [ 2.239879464106014, 41.41055042168864 ], [ 2.239896944426074, 41.410454985675322 ], [ 2.239992059017224, 41.409705056269793 ], [ 2.240003598013715, 41.408951766018156 ], [ 2.239931483586441, 41.408200384477865 ], [ 2.239903969219842, 41.408019404214016 ], [ 2.23974589476834, 41.407264637234768 ], [ 2.239730807128804, 41.4072082586842 ], [ 2.239485534397557, 41.406459065991463 ], [ 2.239155998977455, 41.405728426249254 ], [ 2.238744621751595, 41.405021700802031 ], [ 2.23858830543066, 41.404781679396734 ], [ 2.238560548741791, 41.404740960113187 ], [ 2.238532722392212, 41.404687952025498 ], [ 2.238288069966385, 41.404329922520638 ], [ 2.237983422115573, 41.403847339757831 ], [ 2.237944990380151, 41.40379449941242 ], [ 2.237009911240627, 41.40270363834793 ], [ 2.236983494180329, 41.402677215292869 ], [ 2.236796707392996, 41.402507620171185 ], [ 2.236793613239017, 41.402502128249452 ], [ 2.236162854890529, 41.401544872756077 ], [ 2.235385988891032, 41.400650593289761 ], [ 2.235352850630364, 41.400616982234446 ], [ 2.234734094338978, 41.400040549494101 ], [ 2.234054501621192, 41.399504368879846 ], [ 2.233318674224865, 41.399012069900564 ], [ 2.233289041691906, 41.398993830402169 ], [ 2.232458771386487, 41.398526457457308 ], [ 2.231892001729006, 41.398261695807662 ], [ 2.231740349869141, 41.398111649739789 ], [ 2.231116207639265, 41.397543899583773 ], [ 2.230432519870103, 41.397016470052485 ], [ 2.229693864382004, 41.396532891615479 ], [ 2.229625246673526, 41.39649155612053 ], [ 2.228638415243863, 41.395956669213767 ], [ 2.22810367574619, 41.395724932387274 ], [ 2.227469064419223, 41.395191170131916 ], [ 2.226639223811712, 41.394613574812311 ], [ 2.226085214523589, 41.394295382720607 ], [ 2.225743419343378, 41.393836166434717 ], [ 2.225732498961145, 41.393823005029603 ], [ 2.225095112276248, 41.393129348678414 ], [ 2.224374363141667, 41.392483630249444 ], [ 2.223576573557943, 41.391891511471627 ], [ 2.223561088463792, 41.391881048333744 ], [ 2.22269422419583, 41.391356965902887 ], [ 2.222326489602488, 41.390789701760951 ], [ 2.221708430436819, 41.390034997959397 ], [ 2.220994844442405, 41.389329710474364 ], [ 2.220192648215103, 41.388680672503952 ], [ 2.22006174811547, 41.388584701893443 ], [ 2.219948968462208, 41.388509574868458 ], [ 2.219838210411108, 41.388418988589351 ], [ 2.219707548931857, 41.388322154469293 ], [ 2.218857968002649, 41.387749901201268 ], [ 2.217939925624453, 41.387241145514096 ], [ 2.216999576821858, 41.386817542986329 ], [ 2.216792229877429, 41.386491361763582 ], [ 2.21618293584763, 41.385734163075959 ], [ 2.215477888998809, 41.38502567025288 ], [ 2.214983330989753, 41.3846189672919 ], [ 2.214610122671108, 41.383862771031069 ], [ 2.214428013904355, 41.383543409012105 ], [ 2.214209583880454, 41.38318247925465 ], [ 2.214070497723605, 41.382965447729205 ], [ 2.213918897144857, 41.382737204538046 ], [ 2.213761947660428, 41.382509043390435 ], [ 2.213600117470479, 41.382281808882077 ], [ 2.213362903481754, 41.381959870656452 ], [ 2.213231697407873, 41.381786362169699 ], [ 2.213110116543406, 41.381629646466756 ], [ 2.212973751901247, 41.381458266147881 ], [ 2.21292171990948, 41.381394488223712 ], [ 2.21272536582257, 41.381161863976651 ], [ 2.212308861043976, 41.380684703942961 ], [ 2.212052520964126, 41.380402824880115 ], [ 2.211875839242812, 41.380216230851097 ], [ 2.211687634909572, 41.380022958590864 ], [ 2.211517144439147, 41.379852674023908 ], [ 2.211298409522835, 41.379640841278068 ], [ 2.211076408708238, 41.379432329400757 ], [ 2.210596573979653, 41.378835121638218 ], [ 2.210354118610032, 41.378589291905264 ], [ 2.210304015855057, 41.37852993144238 ], [ 2.210149396676096, 41.37838171893172 ], [ 2.209921421107356, 41.378150566512119 ], [ 2.20981883946313, 41.37806485546551 ], [ 2.209567561965695, 41.377823984773386 ], [ 2.208741476627677, 41.377176762143563 ], [ 2.207833967672379, 41.376594692228764 ], [ 2.207803241461778, 41.376578665331294 ], [ 2.207655857030556, 41.376318167600829 ], [ 2.20701383040048, 41.375458487799271 ], [ 2.206250875029589, 41.374656837032674 ], [ 2.205376142594694, 41.373922826614042 ], [ 2.205355938956577, 41.373907635495137 ], [ 2.204437626224277, 41.373285075290816 ], [ 2.20434401652871, 41.37323372194394 ], [ 2.204256159347292, 41.373073389896696 ], [ 2.203697653729875, 41.372285842186848 ], [ 2.203480495296325, 41.372041422102264 ], [ 2.203598438515404, 41.371682352262354 ], [ 2.203602680194407, 41.371666445471256 ], [ 2.203759985164262, 41.370912223487807 ], [ 2.203831931237273, 41.370150675688983 ], [ 2.203818004466723, 41.36938727379497 ], [ 2.203815393988784, 41.369352279425399 ], [ 2.203711322103624, 41.368569487757391 ], [ 2.203516977988185, 41.367796522653251 ], [ 2.203233847306479, 41.367039280409898 ], [ 2.203213582708226, 41.36699294036805 ], [ 2.202606266912901, 41.365866417242273 ], [ 2.201361281732079, 41.36394110325427 ], [ 2.201174740482771, 41.363601644734146 ], [ 2.200399528120916, 41.362437194351749 ], [ 2.200340965256161, 41.362363130657855 ], [ 2.199296444684803, 41.360747634768614 ], [ 2.19919300105203, 41.360560862714962 ], [ 2.198999831617216, 41.360078669097859 ], [ 2.198813521603026, 41.359734463558468 ], [ 2.198744051950489, 41.359524969987447 ], [ 2.198715499494489, 41.359440602529837 ], [ 2.198657541256295, 41.359272738475184 ], [ 2.198304108131127, 41.358423670508273 ], [ 2.1978412139317, 41.357605019751375 ], [ 2.197666205880149, 41.357364548413372 ], [ 2.197596466999125, 41.357188012358165 ], [ 2.197345640426191, 41.35651512656608 ], [ 2.197315098210511, 41.356434629784701 ], [ 2.197004372029229, 41.355629842844465 ], [ 2.196968185443239, 41.355537943654397 ], [ 2.196803159324144, 41.355126875606821 ], [ 2.196411034171089, 41.354298426561527 ], [ 2.195913551847637, 41.353502743025899 ], [ 2.195315459153667, 41.352747411105256 ], [ 2.194622461543128, 41.352039631931653 ], [ 2.193841168634063, 41.351386153052474 ], [ 2.192979031127984, 41.350793204149504 ], [ 2.192044269742167, 41.35026643769892 ], [ 2.191045796833279, 41.34981087513583 ], [ 2.189993131459196, 41.349430859034136 ], [ 2.188896308687134, 41.349130011755186 ], [ 2.187765784009912, 41.348911200957687 ], [ 2.187438227992428, 41.34887295339233 ], [ 2.187013689740805, 41.348012786531335 ], [ 2.1869268366394, 41.347880839090244 ], [ 2.186796089333436, 41.347635550398408 ], [ 2.186790400875881, 41.347621012504412 ], [ 2.186736912004518, 41.347192841276943 ], [ 2.186518450849436, 41.346338906410317 ], [ 2.186512922474016, 41.346324793188693 ], [ 2.186496182516354, 41.346144983113469 ], [ 2.186323407488596, 41.345340816353676 ], [ 2.186276991404617, 41.34520439055467 ], [ 2.186185733514212, 41.344828597428759 ], [ 2.186064773310923, 41.344508332046729 ], [ 2.186066494387495, 41.344508177551837 ], [ 2.186049874787634, 41.344403031615016 ], [ 2.186020107647195, 41.344275846625067 ], [ 2.185977869774756, 41.344004283461899 ], [ 2.185964548018573, 41.343962901506274 ], [ 2.185915349859613, 41.343675270183986 ], [ 2.185890054784106, 41.343588547996802 ], [ 2.185887243777015, 41.343539729042384 ], [ 2.185885826952799, 41.343528729769297 ], [ 2.185712587327558, 41.342643654859451 ], [ 2.18557619841518, 41.342233972560336 ], [ 2.185574012475441, 41.34222514936787 ], [ 2.185541835437465, 41.342043223691029 ], [ 2.185531295710998, 41.341884302343608 ], [ 2.185437089992615, 41.341441065324219 ], [ 2.185445208041886, 41.341440122868519 ], [ 2.185417495382943, 41.341304542711242 ], [ 2.185372964117048, 41.341139350314386 ], [ 2.185325565332629, 41.340916335236123 ], [ 2.185276522769766, 41.340781590348968 ], [ 2.185238965363828, 41.340642265896271 ], [ 2.185226140411205, 41.34055842193699 ], [ 2.185166511861341, 41.340364189459493 ], [ 2.185070242812746, 41.339905136505884 ], [ 2.185027986726206, 41.339770306919121 ], [ 2.184918066146357, 41.339262300282293 ], [ 2.18492211290371, 41.339261779903502 ], [ 2.184871704155125, 41.339039115594773 ], [ 2.184867519648537, 41.339023164221999 ], [ 2.184794850922795, 41.338661777022899 ], [ 2.184722300077017, 41.338266306961174 ], [ 2.184632160776702, 41.337980328558878 ], [ 2.184565969968949, 41.337671492495652 ], [ 2.184530395435743, 41.337566472438205 ], [ 2.184469783462542, 41.337166332844326 ], [ 2.184469265968743, 41.337157818514846 ], [ 2.184463080493711, 41.337122081839908 ], [ 2.184460595475048, 41.337105676472021 ], [ 2.184459693056398, 41.337102510853924 ], [ 2.184339537068294, 41.33640829993287 ], [ 2.184335115858552, 41.33638908242596 ], [ 2.184120551747403, 41.335681034807273 ], [ 2.183996612547269, 41.335111321859941 ], [ 2.183983867622868, 41.33507304969531 ], [ 2.183978923727615, 41.335029419052745 ], [ 2.183946020544181, 41.334902153625364 ], [ 2.18390540193996, 41.334644588223824 ], [ 2.183883698639859, 41.334569189228496 ], [ 2.18384712458524, 41.334421790440494 ], [ 2.183835097120289, 41.334243154835683 ], [ 2.183639596932202, 41.333306426646644 ], [ 2.183606529100136, 41.333188733014282 ], [ 2.183510734083764, 41.332875471655939 ], [ 2.183474331635493, 41.332765440515459 ], [ 2.183449903642859, 41.33264536526174 ], [ 2.183414128407453, 41.332479815951558 ], [ 2.183169938532893, 41.331412535966429 ], [ 2.182718689252442, 41.329387463144215 ], [ 2.182705030408309, 41.329327408576766 ], [ 2.18210267113552, 41.326731625748337 ], [ 2.182116115061208, 41.326693664058332 ], [ 2.18219398223598, 41.326467766119201 ], [ 2.182215068895087, 41.326405685542149 ], [ 2.182290789185279, 41.326179411966315 ], [ 2.182327505632581, 41.326066631726249 ], [ 2.182415905860933, 41.32578732871594 ], [ 2.182625622183716, 41.325179676755589 ], [ 2.182642524774169, 41.325130123900834 ], [ 2.182905720630347, 41.324349321426006 ], [ 2.182937502272785, 41.324252806978919 ], [ 2.1831537631141, 41.32358020058718 ], [ 2.183390846847087, 41.322902095362679 ], [ 2.183408125885443, 41.322852091837461 ], [ 2.183596016423205, 41.322301888530653 ], [ 2.183649005889188, 41.322140566707411 ], [ 2.183761772095185, 41.321783156008713 ], [ 2.184148525026857, 41.320638001592208 ], [ 2.184201393854618, 41.320475130992889 ], [ 2.184313110669474, 41.32011654347334 ], [ 2.18442752919884, 41.319813653236373 ], [ 2.184623976260335, 41.319217016501455 ], [ 2.184630101967997, 41.319195261457587 ], [ 2.184788681370281, 41.318498450909971 ], [ 2.184874278145565, 41.317794409956342 ], [ 2.184876609336201, 41.317760737960263 ], [ 2.184884940548609, 41.316963540923929 ], [ 2.184799742290728, 41.316168910945393 ], [ 2.18479418430423, 41.316135543370955 ], [ 2.184621606892836, 41.315368863920476 ], [ 2.184361965524581, 41.314616264115848 ], [ 2.184348402829345, 41.314582929864081 ], [ 2.18379680472496, 41.31348719108334 ], [ 2.183782523901683, 41.313463579905552 ], [ 2.18319303186422, 41.312612309809758 ], [ 2.183166219330617, 41.312578160772397 ], [ 2.182575130863336, 41.311897461927551 ], [ 2.182543290512131, 41.311864177798896 ], [ 2.181907098876393, 41.311256056728048 ], [ 2.181862193402719, 41.311216734510985 ], [ 2.181002459763916, 41.310538739200751 ], [ 2.180053888901825, 41.30993182936438 ], [ 2.179998854341768, 41.30990018082381 ], [ 2.179017743679552, 41.309392189172321 ], [ 2.177974477132198, 41.308960321120459 ], [ 2.17794914830582, 41.30895104251934 ], [ 2.177051133121256, 41.308655748865952 ], [ 2.176124053852705, 41.308416926918355 ], [ 2.176085338021438, 41.308408272697285 ], [ 2.174938605502122, 41.308197787705673 ], [ 2.173769929005092, 41.308073643059842 ], [ 2.17369055655094, 41.308068209165512 ], [ 2.172704712605914, 41.308031587903372 ], [ 2.17171822429603, 41.30805645314048 ], [ 2.171657375566944, 41.308059888542388 ], [ 2.170662986958432, 41.308147750222481 ], [ 2.169681844702864, 41.308298082653103 ], [ 2.169621374031406, 41.308309356344502 ], [ 2.16877091748007, 41.308493355742343 ], [ 2.167940849947946, 41.308724308447886 ], [ 2.167907388141554, 41.308734695558904 ], [ 2.166371353415402, 41.309312027746529 ], [ 2.166326058604757, 41.309332237087254 ], [ 2.165396085279233, 41.309792541044054 ], [ 2.164526919270682, 41.310316071170206 ], [ 2.164485473160894, 41.310343513817784 ], [ 2.163357362215768, 41.311197820595531 ], [ 2.163336221544593, 41.311216132560794 ], [ 2.162337151885271, 41.312213600421138 ], [ 2.162312171381149, 41.312242513244854 ], [ 2.161735801780706, 41.312984852323325 ], [ 2.161255967014172, 41.31376525759412 ], [ 2.161238589273687, 41.313797468319692 ], [ 2.160933064207115, 41.31443065748968 ], [ 2.160691168112801, 41.315079293956842 ], [ 2.160681335475942, 41.315110028313036 ], [ 2.160428642982778, 41.316178968844255 ], [ 2.160421477224494, 41.316225305802163 ], [ 2.16041498431657, 41.316301410430874 ], [ 2.160269172664703, 41.316140883625373 ], [ 2.159430737920919, 41.315294308772899 ], [ 2.158701196613527, 41.314627043401671 ], [ 2.157890162482187, 41.314015593637365 ], [ 2.157005110994429, 41.313465593676639 ], [ 2.156054199015253, 41.312982111346784 ], [ 2.155046189652804, 41.312569601453703 ], [ 2.153990371545697, 41.312231864776976 ], [ 2.152896473333775, 41.311972013088479 ], [ 2.15177457409752, 41.311792440514445 ], [ 2.150635010587558, 41.311694801503933 ], [ 2.149488282094576, 41.311679995605168 ], [ 2.148431939869775, 41.311742973611288 ], [ 2.147668501084958, 41.311750198549795 ], [ 2.146923268117581, 41.311747202847059 ], [ 2.146422882350731, 41.311757610006673 ], [ 2.146264157434056, 41.311752370218372 ], [ 2.145241294090379, 41.31175164740381 ], [ 2.144222096845732, 41.311816892253674 ], [ 2.142515736208018, 41.311981836451857 ], [ 2.140668543903301, 41.312090944842495 ], [ 2.139932586980169, 41.312103244092178 ], [ 2.133517211045709, 41.311863139114344 ], [ 2.133392693355749, 41.311853055483091 ], [ 2.132532649476232, 41.311806999263503 ], [ 2.131127894538981, 41.31177010143854 ], [ 2.130237913491627, 41.311771727175781 ], [ 2.129350561837319, 41.311823298754518 ], [ 2.127158031504204, 41.312012862069864 ], [ 2.126278920301605, 41.312113976678873 ], [ 2.123558333455251, 41.31250547750102 ], [ 2.123164225951528, 41.312567391610052 ], [ 2.120501869145058, 41.313021027918836 ], [ 2.120263501184245, 41.313063581161664 ], [ 2.11887333978654, 41.313323117183081 ], [ 2.118192240878709, 41.313466524948559 ], [ 2.115348355088276, 41.314134275000214 ], [ 2.114282331461617, 41.314427101336804 ], [ 2.112425088309523, 41.315013969161932 ], [ 2.111345064964397, 41.315404304487892 ], [ 2.109954512828091, 41.315973151388064 ], [ 2.10900198879198, 41.316407267480557 ], [ 2.108107171995597, 41.316906325487558 ], [ 2.106493306504587, 41.317897298971104 ], [ 2.105502638476983, 41.31857876249699 ], [ 2.10494263936709, 41.319009806375576 ], [ 2.104535964700881, 41.319272038221861 ], [ 2.103637174005589, 41.319915351755739 ], [ 2.102831600008564, 41.320625392021235 ], [ 2.102127911912816, 41.321394520614838 ], [ 2.101204303263028, 41.322525292814476 ], [ 2.100950800721054, 41.322850726208046 ], [ 2.099745737868296, 41.324474651549572 ], [ 2.098839549611375, 41.325654535301133 ], [ 2.098818667986208, 41.325673019279677 ], [ 2.098019448768259, 41.326290351265285 ], [ 2.097963979699311, 41.326333482789749 ], [ 2.097296379984731, 41.326856062723728 ], [ 2.097011041380728, 41.327071546003928 ], [ 2.096859038258733, 41.327182101988925 ], [ 2.096746978379794, 41.32725069429587 ], [ 2.096138109960942, 41.327599131718578 ], [ 2.094911793243585, 41.32809113678028 ], [ 2.093920901886358, 41.328536212846053 ], [ 2.092991544236358, 41.329051225873755 ], [ 2.092132379171652, 41.329631378254028 ], [ 2.0913514123101, 41.3302712654476 ], [ 2.090655921429022, 41.330964926287059 ], [ 2.090052388635606, 41.331705898465096 ], [ 2.089546439920541, 41.332487278694217 ], [ 2.089142792659711, 41.333301786980066 ], [ 2.088845211555849, 41.334141834410815 ], [ 2.088656473434402, 41.334999593833359 ], [ 2.088578341226167, 41.335867072758781 ], [ 2.088611547384451, 41.336736187819334 ], [ 2.088755786896991, 41.337598840083587 ], [ 2.08900971996382, 41.338446990528354 ], [ 2.089370984322246, 41.33927273496424 ], [ 2.089836217110027, 41.340068377715887 ], [ 2.090401086068609, 41.340826503369456 ], [ 2.091060329800599, 41.34154004591764 ], [ 2.09180780671059, 41.342202354655903 ], [ 2.092636552176499, 41.342807256214357 ], [ 2.093538843420932, 41.343349112144743 ], [ 2.094506271479102, 41.343822871524011 ], [ 2.095529819592596, 41.344224118081719 ], [ 2.096371880722522, 41.344516202132134 ], [ 2.096443070946626, 41.344540682829603 ], [ 2.103088071551883, 41.346805698001454 ], [ 2.106225127366243, 41.34788855900544 ], [ 2.106388663954536, 41.347943891651632 ], [ 2.120819675662643, 41.352727700024644 ], [ 2.120576237030221, 41.353267422945144 ], [ 2.120309520971081, 41.354127683455637 ], [ 2.120155926297778, 41.355003493265109 ], [ 2.120116935040482, 41.355886427687715 ], [ 2.120192926920333, 41.356767993166834 ], [ 2.120383175518837, 41.35763970897581 ], [ 2.120685855088794, 41.358493188808275 ], [ 2.120910656466279, 41.358944226952119 ], [ 2.120898225615418, 41.359102968830115 ], [ 2.120944066483988, 41.359985181679335 ], [ 2.121060272235023, 41.360619346879133 ], [ 2.121065568450158, 41.360707417395062 ], [ 2.121236687065684, 41.361592586971454 ], [ 2.121523504658605, 41.362460603058814 ], [ 2.121528143556354, 41.362470379083341 ], [ 2.121421653016768, 41.362624747017897 ], [ 2.120972198821694, 41.363354097663603 ], [ 2.120610869006725, 41.364110740397344 ], [ 2.120589789408334, 41.364171401629648 ], [ 2.120359277087415, 41.364298277141593 ], [ 2.120361499781743, 41.364300569153443 ], [ 2.119968554511814, 41.364511401598897 ], [ 2.119215197376767, 41.364990765104892 ], [ 2.118493535457726, 41.365489785876214 ], [ 2.11818629746979, 41.36568995305533 ], [ 2.117827219990752, 41.365933619270699 ], [ 2.117809085490779, 41.36594643458578 ], [ 2.117398068375898, 41.366165232215536 ], [ 2.116729084659068, 41.366548601835056 ], [ 2.116697605840736, 41.366567993913321 ], [ 2.116359383032855, 41.366794205023346 ], [ 2.108990897158472, 41.366940959992668 ], [ 2.107805311411012, 41.367009084736281 ], [ 2.106634565946569, 41.367165573865336 ], [ 2.105490235062504, 41.367408880251126 ], [ 2.10438363221892, 41.367736598454506 ], [ 2.103325698310818, 41.368145488480465 ], [ 2.102326893602486, 41.368631507775262 ], [ 2.101397094387287, 41.369189851151319 ], [ 2.100545495390449, 41.369814998247314 ], [ 2.099780518876883, 41.370500768056488 ], [ 2.099109731361213, 41.371240379986823 ], [ 2.099078612895174, 41.371283301790918 ], [ 2.098962500270651, 41.371334544889613 ], [ 2.098026338218343, 41.371845104852305 ], [ 2.097159971626589, 41.372421357528538 ], [ 2.0968559697551, 41.37264415568692 ], [ 2.096593717328734, 41.372761614888184 ], [ 2.095690480079286, 41.373257626542021 ], [ 2.095167222185804, 41.373574208415384 ], [ 2.094378287266518, 41.374096054957306 ], [ 2.094315336957039, 41.374141532023799 ], [ 2.093572398455371, 41.374728865180685 ], [ 2.093520498133934, 41.374773782108846 ], [ 2.092741396047664, 41.375524861916837 ], [ 2.092132030304215, 41.376181117392399 ], [ 2.091558028354739, 41.376862322193269 ], [ 2.091067249081546, 41.377579482021979 ], [ 2.090663632601198, 41.378326843357158 ], [ 2.090460756337133, 41.378756725269206 ], [ 2.090255625058632, 41.379232918873655 ], [ 2.089708090239018, 41.38063558762348 ], [ 2.089430920967833, 41.381501877887288 ], [ 2.089268754319833, 41.382384555841362 ], [ 2.089223182111564, 41.383274982614104 ], [ 2.089294655144497, 41.38416444314656 ], [ 2.089480607964393, 41.385035469277987 ], [ 2.089447944664501, 41.38514830014681 ], [ 2.089389205768847, 41.385252131884549 ], [ 2.089337366082098, 41.38535640408233 ], [ 2.089201094621206, 41.385613327870743 ], [ 2.088748090665011, 41.386643683624683 ], [ 2.08869705770011, 41.386788469326994 ], [ 2.088515855076144, 41.387383082678511 ], [ 2.088464979706402, 41.387580469616175 ], [ 2.088366847340548, 41.388125093552858 ], [ 2.088353567906781, 41.388176249556402 ], [ 2.087944273090094, 41.38861254998077 ], [ 2.087347326081627, 41.389409868188856 ], [ 2.086860901921203, 41.390248692707289 ], [ 2.086754061839551, 41.390499802508543 ], [ 2.086695258975274, 41.390595622088433 ], [ 2.086302467068965, 41.391453171152946 ], [ 2.086026201843536, 41.392336123044153 ], [ 2.085869270028549, 41.393235522559124 ], [ 2.085833268285719, 41.394142247312018 ], [ 2.085918566817293, 41.395047100243879 ], [ 2.086124305407638, 41.395940902904805 ], [ 2.086212693836599, 41.396179179033879 ], [ 2.085350190162408, 41.395688638154176 ], [ 2.084402607783364, 41.395247502958739 ], [ 2.08340464349551, 41.394874658022772 ], [ 2.083290476646121, 41.394836885394383 ], [ 2.083175812440218, 41.39480128373679 ], [ 2.083136979249766, 41.394786247863678 ], [ 2.083045116835756, 41.394753917593761 ], [ 2.082057345199885, 41.394445984396128 ], [ 2.081950053403975, 41.394416692678817 ], [ 2.080550614651498, 41.394105898690192 ], [ 2.080452808771864, 41.394088981984886 ], [ 2.079221727434563, 41.393926497263521 ], [ 2.0779748544032, 41.393861622943376 ], [ 2.076725798540898, 41.393895067032062 ], [ 2.076117119548255, 41.393959692599061 ], [ 2.075598170787599, 41.393917665655437 ], [ 2.074445465729295, 41.393908352493447 ], [ 2.073296921936471, 41.393982631201474 ], [ 2.072163203424448, 41.394139812068516 ], [ 2.071966581349838, 41.394182144332262 ], [ 2.07153876790152, 41.394200160697409 ], [ 2.070377904298955, 41.394335957726085 ], [ 2.06924032394142, 41.394556842275286 ], [ 2.068136996603601, 41.394860684336422 ], [ 2.067078562140734, 41.395244553921131 ], [ 2.066075227988098, 41.395704749284285 ], [ 2.065475099465777, 41.396011403257454 ], [ 2.064502565391143, 41.396564864078151 ], [ 2.063609875599019, 41.397189979805404 ], [ 2.062806301590719, 41.397880259587218 ], [ 2.062100190325685, 41.398628535742567 ], [ 2.06149887750033, 41.399427038128636 ], [ 2.06100861128745, 41.400267474769024 ], [ 2.060919755928688, 41.400474969452901 ], [ 2.060617786308903, 41.400880860228135 ], [ 2.060567142424037, 41.400949634771663 ], [ 2.060119277592266, 41.401564139463687 ], [ 2.059875591667126, 41.401516522991507 ], [ 2.058724563531889, 41.401379795422223 ], [ 2.057561331159138, 41.40132802620456 ], [ 2.056975523733344, 41.401323472145293 ], [ 2.055860425219661, 41.40135398169943 ], [ 2.054753950697743, 41.401462579824489 ], [ 2.053665723682829, 41.40164832195255 ], [ 2.052605209166897, 41.401909592551512 ], [ 2.051581631390332, 41.402244119160692 ], [ 2.050603893695395, 41.402648992134132 ], [ 2.049680501154917, 41.403120689920598 ], [ 2.048819486646084, 41.403655109661486 ], [ 2.048028341009894, 41.404247602842254 ], [ 2.047313947902109, 41.404893015688423 ], [ 2.045450931591957, 41.40674532235321 ], [ 2.044774024220298, 41.407493685209751 ], [ 2.044200317927296, 41.408289428315058 ], [ 2.043735612721641, 41.409124512228423 ], [ 2.043384607942908, 41.409990499741781 ], [ 2.043150854634913, 41.410878641082995 ], [ 2.04303671949625, 41.411779962289046 ], [ 2.043035625971743, 41.411798341530186 ], [ 2.042878141004967, 41.412302407121921 ], [ 2.042724544298189, 41.413141715552392 ], [ 2.042676382919703, 41.413988175192245 ], [ 2.042734087106239, 41.414834296488891 ], [ 2.042897150369233, 41.415672592595918 ], [ 2.043164133831751, 41.416495645622881 ], [ 2.043532678820367, 41.417296172285042 ], [ 2.043766697959616, 41.417682614930406 ], [ 2.043375355891535, 41.417997741827755 ], [ 2.042717398883376, 41.418632916929731 ], [ 2.042137443579927, 41.419309794639368 ], [ 2.04210207047472, 41.419355437969443 ], [ 2.041556235880455, 41.42014744376926 ], [ 2.041117170694561, 41.420976212187625 ], [ 2.040789186980457, 41.421833611633232 ], [ 2.040750574702567, 41.42199220050194 ] ] ] } }
]
}
